OBJECT_NAME,OBJECT_ID,EPOCH,MEAN_MOTION,ECCENTRICITY,INCLINATION,RA_OF_ASC_NODE,ARG_OF_PERICENTER,MEAN_ANOMALY,EPHEMERIS_TYPE,CLASSIFICATION_TYPE,NORAD_CAT_ID,ELEMENT_SET_NO,REV_AT_EPOCH,BSTAR,MEAN_MOTION_DOT,MEAN_MOTION_DDOT
STARLINK-31923,2024-150T,2026-07-19T18:50:48.715584,15.30185769,.0001528,53.1609,53.6071,99.8858,260.2316,0,U,60600,999,10826,-.82085E-5,-.602E-5,0
STARLINK-31988,2024-150U,2026-07-19T19:39:11.666592,15.34392056,.0001286,53.1614,50.9814,92.8593,267.2557,0,U,60601,999,10822,.13403E-4,.77E-6,0
STARLINK-31983,2024-150V,2026-07-19T20:39:39.091104,15.34392969,.000139,53.1608,50.5334,96.5281,263.5880,0,U,60602,999,10823,.19112E-4,.269E-5,0
STARLINK-31874,2024-150W,2026-07-19T21:00:52.020576,15.34395925,.0001264,53.1594,50.6260,90.5001,269.6147,0,U,60603,999,10831,.1468E-3,.4586E-4,0
STARLINK-32039,2024-150X,2026-07-19T21:26:24.186336,15.30199481,.0001375,53.1601,55.7029,100.9045,259.2111,0,U,60604,999,10824,.62523E-4,.1493E-4,0
STARLINK-11247 [DTC],2024-152A,2026-07-19T05:58:26.541120,15.69668966,.00010896,53.1575,188.0336,85.8968,274.2175,0,U,60720,999,10949,-.36178014E-4,-.4961E-4,0
STARLINK-11259 [DTC],2024-152B,2026-07-19T08:54:41.908032,15.69708273,.00011204,53.1595,187.3733,89.1246,270.9901,0,U,60721,999,10951,.10666222E-4,.704E-5,0
STARLINK-11188 [DTC],2024-152C,2026-07-19T16:26:03.765984,15.69692937,.000129,53.1593,185.7699,103.6653,256.4508,0,U,60722,999,10968,.15273E-4,.126E-4,0
STARLINK-11272 [DTC],2024-152D,2026-07-19T08:33:30.915648,15.69691824,.00005679,53.1589,187.2758,68.2095,291.8983,0,U,60723,999,10951,.31627706E-4,.3243E-4,0
STARLINK-11261 [DTC],2024-152E,2026-07-19T05:37:12.156672,15.69703999,.00012119,53.1597,187.9375,78.0537,282.0617,0,U,60724,999,10949,.10392461E-4,.67E-5,0
STARLINK-11263 [DTC],2024-152F,2026-07-19T05:23:03.964416,15.69725799,.00011228,53.1593,187.8673,84.0204,276.0942,0,U,60725,999,10949,-.32452034E-4,-.4521E-4,0
STARLINK-11235 [DTC],2024-152G,2026-07-19T08:19:22.725120,15.69709107,.00011333,53.1592,187.2093,88.2701,271.8447,0,U,60726,999,10964,.3169121E-5,-.205E-5,0
STARLINK-11080 [DTC],2024-152H,2026-07-19T08:12:18.990144,15.69706151,.00011302,53.1577,187.1770,76.4478,283.6666,0,U,60727,999,10964,.522801E-6,-.525E-5,0
STARLINK-11249 [DTC],2024-152J,2026-07-19T06:33:34.025472,15.69705796,.00010118,53.1592,187.4601,85.1300,274.9833,0,U,60728,999,10950,.1640442E-5,-.39E-5,0
STARLINK-11146 [DTC],2024-152K,2026-07-19T06:26:30.118560,15.69705997,.00011384,53.1612,187.4151,86.2157,273.8991,0,U,60729,999,10963,.627578E-6,-.513E-5,0
STARLINK-11255 [DTC],2024-152L,2026-07-19T06:19:26.628960,15.69692036,.00011757,53.1598,187.3937,82.1799,277.9352,0,U,60730,999,10951,.32773348E-4,.3381E-4,0
STARLINK-11254 [DTC],2024-152M,2026-07-19T09:15:44.459136,15.69707131,.00009941,53.1597,186.7313,79.3180,280.7950,0,U,60731,999,10953,.15528328E-4,.1293E-4,0
STARLINK-11266 [DTC],2024-152N,2026-07-19T09:08:40.641216,15.69707095,.00011235,53.1589,186.6884,74.8280,285.2862,0,U,60732,999,10952,.1016086E-4,.642E-5,0
STARLINK-32253,2024-152P,2026-07-19T20:00:01.999008,15.34380860,.0001277,53.1613,14.3589,71.8679,27.6344,0,U,60733,999,575,.47112E-3,.15565E-3,0
STARLINK-32179,2024-152Q,2026-07-19T19:25:02.923104,15.34390626,.000113,53.1618,14.4175,91.1119,269.0013,0,U,60734,999,10695,.10986E-4,-.5E-7,0
STARLINK-32289,2024-152T,2026-07-19T19:43:13.188288,15.34398508,.0001189,53.1625,14.4919,109.2975,250.8156,0,U,60737,999,10708,.4738E-4,.1225E-4,0
STARLINK-32304,2024-152U,2026-07-19T18:27:36.764928,15.34393175,.0001141,53.1637,14.8764,85.8370,274.2763,0,U,60738,999,10707,-.96759E-5,-.703E-5,0
STARLINK-32235,2024-152V,2026-07-19T20:00:01.999008,15.34392770,.0000723,53.1596,14.6442,47.9334,271.9994,0,U,60739,999,590,.44651E-3,.14736E-3,0
STARLINK-32315,2024-152W,2026-07-19T20:00:01.999008,15.34370578,.0001164,53.1594,14.6656,104.8273,203.4953,0,U,60740,999,590,.69874E-3,.23283E-3,0
STARLINK-11242 [DTC],2024-154A,2026-07-19T17:06:30.729024,15.69715480,.0001166,53.1614,200.1811,73.3181,286.7964,0,U,60903,999,10925,.12062E-4,.873E-5,0
STARLINK-11256 [DTC],2024-154B,2026-07-19T06:17:40.153920,15.69719443,.00008794,53.1590,202.3445,75.6089,284.5027,0,U,60904,999,10918,-.17911107E-4,-.2758E-4,0
STARLINK-11159 [DTC],2024-154C,2026-07-19T06:03:41.552928,15.69697851,.00010868,53.1591,203.0144,100.2605,259.8536,0,U,60905,999,10917,.18798487E-4,.1688E-4,0
STARLINK-11264 [DTC],2024-154D,2026-07-19T10:31:40.338912,15.69706200,.00008447,53.1597,202.0392,76.7654,283.3458,0,U,60906,999,10920,.4007335E-5,-.103E-5,0
STARLINK-11226 [DTC],2024-154E,2026-07-19T07:21:14.251680,15.69704654,.00009437,53.1591,202.6361,87.4820,272.6306,0,U,60907,999,10918,.5036864E-5,.22E-6,0
STARLINK-11229 [DTC],2024-154F,2026-07-19T10:17:32.507808,15.69708403,.00011522,53.1596,201.9743,86.0727,274.0423,0,U,60908,999,10920,.8100668E-5,.393E-5,0
