STARLINK-31923          
1 60600U 24150T   26200.78528606 -.00000602  00000+0 -82085-5 0  9993
2 60600  53.1609  53.6071 0001528  99.8858 260.2316 15.30185769108265
STARLINK-31988          
1 60601U 24150U   26200.81888503  .00000077  00000+0  13403-4 0  9994
2 60601  53.1614  50.9814 0001286  92.8593 267.2557 15.34392056108220
STARLINK-31983          
1 60602U 24150V   26200.86086911  .00000269  00000+0  19112-4 0  9999
2 60602  53.1608  50.5334 0001390  96.5281 263.5880 15.34392969108230
STARLINK-31874          
1 60603U 24150W   26200.87560209  .00004586  00000+0  14680-3 0  9998
2 60603  53.1594  50.6260 0001264  90.5001 269.6147 15.34395925108315
STARLINK-32039          
1 60604U 24150X   26200.89333549  .00001493  00000+0  62523-4 0  9990
2 60604  53.1601  55.7029 0001375 100.9045 259.2111 15.30199481108244
STARLINK-11247 [DTC]    
1 60720U 24152A   26200.24891830 -.00004961  00000+0 -36178-4 0  9994
2 60720  53.1575 188.0336 0001089  85.8968 274.2175 15.69668966109497
STARLINK-11259 [DTC]    
1 60721U 24152B   26200.37131838  .00000704  00000+0  10666-4 0  9997
2 60721  53.1595 187.3733 0001120  89.1246 270.9901 15.69708273109514
STARLINK-11188 [DTC]    
1 60722U 24152C   26200.68476581  .00001260  00000+0  15273-4 0  9996
2 60722  53.1593 185.7699 0001290 103.6653 256.4508 15.69692937109687
STARLINK-11272 [DTC]    
1 60723U 24152D   26200.35660782  .00003243  00000+0  31628-4 0  9994
2 60723  53.1589 187.2758 0000567  68.2095 291.8983 15.69691824109514
STARLINK-11261 [DTC]    
1 60724U 24152E   26200.23416848  .00000670  00000+0  10392-4 0  9990
2 60724  53.1597 187.9375 0001211  78.0537 282.0617 15.69703999109493
STARLINK-11263 [DTC]    
1 60725U 24152F   26200.22435144 -.00004521  00000+0 -32452-4 0  9992
2 60725  53.1593 187.8673 0001122  84.0204 276.0942 15.69725799109495
STARLINK-11235 [DTC]    
1 60726U 24152G   26200.34679080 -.00000205  00000+0  31691-5 0  9994
2 60726  53.1592 187.2093 0001133  88.2701 271.8447 15.69709107109640
STARLINK-11080 [DTC]    
1 60727U 24152H   26200.34188646 -.00000525  00000+0  52280-6 0  9991
2 60727  53.1577 187.1770 0001130  76.4478 283.6666 15.69706151109642
STARLINK-11249 [DTC]    
1 60728U 24152J   26200.27331048 -.00000390  00000+0  16404-5 0  9997
2 60728  53.1592 187.4601 0001011  85.1300 274.9833 15.69705796109503
STARLINK-11146 [DTC]    
1 60729U 24152K   26200.26840415 -.00000513  00000+0  62758-6 0  9991
2 60729  53.1612 187.4151 0001138  86.2157 273.8991 15.69705997109639
STARLINK-11255 [DTC]    
1 60730U 24152L   26200.26350265  .00003381  00000+0  32773-4 0  9999
2 60730  53.1598 187.3937 0001175  82.1799 277.9352 15.69692036109515
STARLINK-11254 [DTC]    
1 60731U 24152M   26200.38593124  .00001293  00000+0  15528-4 0  9995
2 60731  53.1597 186.7313 0000994  79.3180 280.7950 15.69707131109537
STARLINK-11266 [DTC]    
1 60732U 24152N   26200.38102594  .00000642  00000+0  10161-4 0  9998
2 60732  53.1589 186.6884 0001123  74.8280 285.2862 15.69707095109527
STARLINK-32253          
1 60733U 24152P   26200.83335647  .00015565  00000+0  47112-3 0  9991
2 60733  53.1613  14.3589 0001277  71.8679  27.6344 15.34380860  5756
STARLINK-32179          
1 60734U 24152Q   26200.80906161 -.00000005  00000+0  10986-4 0  9998
2 60734  53.1618  14.4175 0001130  91.1119 269.0013 15.34390626106956
STARLINK-32289          
1 60737U 24152T   26200.82168042  .00001225  00000+0  47380-4 0  9993
2 60737  53.1625  14.4919 0001189 109.2975 250.8156 15.34398508107086
STARLINK-32304          
1 60738U 24152U   26200.76917552 -.00000703  00000+0 -96759-5 0  9992
2 60738  53.1637  14.8764 0001141  85.8370 274.2763 15.34393175107076
STARLINK-32235          
1 60739U 24152V   26200.83335647  .00014736  00000+0  44651-3 0  9991
2 60739  53.1596  14.6442 0000723  47.9334 271.9994 15.34392770  5905
STARLINK-32315          
1 60740U 24152W   26200.83335647  .00023283  00000+0  69874-3 0  9994
2 60740  53.1594  14.6656 0001164 104.8273 203.4953 15.34370578  5904
STARLINK-11242 [DTC]    
1 60903U 24154A   26200.71285566  .00000873  00000+0  12062-4 0  9996
2 60903  53.1614 200.1811 0001166  73.3181 286.7964 15.69715480109255
STARLINK-11256 [DTC]    
1 60904U 24154B   26200.26227030 -.00002758  00000+0 -17911-4 0  9993
2 60904  53.1590 202.3445 0000879  75.6089 284.5027 15.69719443109189
STARLINK-11159 [DTC]    
1 60905U 24154C   26200.25256427  .00001688  00000+0  18798-4 0  9998
2 60905  53.1591 203.0144 0001086 100.2605 259.8536 15.69697851109172
STARLINK-11264 [DTC]    
1 60906U 24154D   26200.43866133 -.00000103  00000+0  40073-5 0  9994
2 60906  53.1597 202.0392 0000844  76.7654 283.3458 15.69706200109203
STARLINK-11226 [DTC]    
1 60907U 24154E   26200.30641495  .00000022  00000+0  50369-5 0  9991
2 60907  53.1591 202.6361 0000943  87.4820 272.6306 15.69704654109185
STARLINK-11229 [DTC]    
1 60908U 24154F   26200.42884847  .00000393  00000+0  81007-5 0  9999
2 60908  53.1596 201.9743 0001152  86.0727 274.0423 15.69708403109206
